[{"OBJECT_NAME":"STARLINK-1788","OBJECT_ID":"2020-073V","EPOCH":"2026-03-10T00:00:02.999808","MEAN_MOTION":15.62536855,"ECCENTRICITY":6.992e-5,"INCLINATION":53.0425,"RA_OF_ASC_NODE":216.993,"ARG_OF_PERICENTER":36.5183,"MEAN_ANOMALY":237.1279,"EPHEMERIS_TYPE":0,"CLASSIFICATION_TYPE":"U","NORAD_CAT_ID":46689,"ELEMENT_SET_NO":999,"REV_AT_EPOCH":593,"BSTAR":0.0017040021,"MEAN_MOTION_DOT":0.00157208,"MEAN_MOTION_DDOT":0},{"OBJECT_NAME":"STARLINK-36814","OBJECT_ID":"2026-036A","EPOCH":"2026-03-09T22:00:01.999584","MEAN_MOTION":15.74661974,"ECCENTRICITY":0.00015797,"INCLINATION":42.9995,"RA_OF_ASC_NODE":248.4785,"ARG_OF_PERICENTER":276.779,"MEAN_ANOMALY":148.1663,"EPHEMERIS_TYPE":0,"CLASSIFICATION_TYPE":"U","NORAD_CAT_ID":67904,"ELEMENT_SET_NO":999,"REV_AT_EPOCH":368,"BSTAR":-0.014123764,"MEAN_MOTION_DOT":-0.01861626,"MEAN_MOTION_DDOT":0}]
